NORAD_CAT_ID,OBJECT_NAME,OBJECT_TYPE,EPOCH,MEAN_MOTION,ECCENTRICITY,INCLINATION,RA_OF_ASC_NODE,ARG_OF_PERICENTER,MEAN_ANOMALY,BSTAR,MEAN_MOTION_DOT,MEAN_MOTION_DDOT,TLE_LINE0,TLE_LINE1,TLE_LINE2,SEMIMAJOR_AXIS,PERIOD,APOGEE,PERIGEE,DECAYED
49440.0,STARLINK-3105,PAYLOAD,2022-02-08 22:00:01,15.52054719,0.0001841,53.2169,61.7034,31.4189,253.4251,-0.0081344,-0.00470627,0.0,0 STARLINK-3105,1 49440U 21104AJ  22039.91668981 -.00470627  00000-0 -81344-2 0  9993,2 49440  53.2169  61.7034 0001841  31.4189 253.4251 15.52054719  3666,6788.865,92.78,411.98,409.48,0.0
49440.0,STARLINK-3105,PAYLOAD,2022-02-09 14:00:01,15.51267636,0.0001571999999999,53.2172,58.5086,35.9252,15.0313,-0.011926,-0.00655077,0.0,0 STARLINK-3105,1 49440U 21104AJ  22040.58334491 -.00655077  00000-0 -11926-1 0  9996,2 49440  53.2172  58.5086 0001572  35.9252  15.0313 15.51267636  3723,6791.161,92.827,414.093,411.958,0.0
49440.0,STARLINK-3105,PAYLOAD,2022-02-09 22:00:00,15.50800798,0.0001841,53.2173,56.9107,30.9123,82.336,-0.012144,-0.00655941,0.0,0 STARLINK-3105,1 49440U 21104AJ  22040.91667824 -.00655941  00000-0 -12144-1 0  9995,2 49440  53.2173  56.9107 0001841  30.9123  82.3360 15.50800798 15173,6792.524,92.855,415.639,413.138,0.0
49440.0,STARLINK-3105,PAYLOAD,2022-02-10 12:59:07,15.50673164,0.0001753,53.2152,53.9319,58.3991,301.719,-0.0059462,-0.003332,0.0,0 STARLINK-3105,1 49440U 21104AJ  22041.54105737 -.00333200  00000-0 -59462-2 0  9991,2 49440  53.2152  53.9319 0001753  58.3991 301.7190 15.50673164 14196,6792.896,92.863,415.952,413.571,0.0
49440.0,STARLINK-3105,PAYLOAD,2022-02-10 22:00:00,15.49399707,0.0001615,53.2173,52.1292,39.646,257.1096,-0.01271,-0.00653255,0.0,0 STARLINK-3105,1 49440U 21104AJ  22041.91667824 -.00653255  00000-0 -12710-1 0  9991,2 49440  53.2173  52.1292 0001615  39.6460 257.1096 15.49399707  3676,6796.618,92.939,419.581,417.385,0.0
49440.0,STARLINK-3105,PAYLOAD,2022-02-11 06:00:52,15.49671215,0.0001863,53.2153,50.5431,44.2409,315.8749,-0.0059629,-0.0032288,0.0,0 STARLINK-3105,1 49440U 21104AJ  22042.25060553 -.00322880  00000-0 -59629-2 0  9993,2 49440  53.2153  50.5431 0001863  44.2409 315.8749 15.49671215 15375,6795.824000000001,92.923,418.955,416.423,0.0
49440.0,STARLINK-3105,PAYLOAD,2022-02-11 13:45:30,15.49245211,0.0003123,53.2154,49.0043,28.4197,331.6983,-0.0061438999999999,-0.00327586,0.0,0 STARLINK-3105,1 49440U 21104AJ  22042.57326451 -.00327586  00000-0 -61439-2 0  9990,2 49440  53.2154  49.0043 0003123  28.4197 331.6983 15.49245211 15422,6797.07,92.948,421.0580000000001,416.812,0.0
49440.0,STARLINK-3105,PAYLOAD,2022-02-11 22:00:01,15.47848202,0.000154,53.2165,47.3589,35.2547,80.1157,-0.0093129,-0.00464325,0.0,0 STARLINK-3105,1 49440U 21104AJ  22042.91668981 -.00464325  00000-0 -93129-2 0  9999,2 49440  53.2165  47.3589 0001540  35.2547  80.1157 15.47848202 15488,6801.159000000002,93.032,424.071,421.977,0.0
49440.0,STARLINK-3105,PAYLOAD,2022-02-12 05:15:12,15.48305154,0.0001774,53.2153,45.9271,50.7173,309.3994,-0.0065267,-0.00336204,0.0,0 STARLINK-3105,1 49440U 21104AJ  22043.21889491 -.00336204  00000-0 -65267-2 0  9990,2 49440  53.2153  45.9271 0001774  50.7173 309.3994 15.48305154 15528,6799.821,93.005,422.892,420.48,0.0
49440.0,STARLINK-3105,PAYLOAD,2022-02-12 13:00:14,15.47878151,0.0002043,53.2153,44.3891,55.4226,304.6976,-0.0065492,-0.0033253,0.0,0 STARLINK-3105,1 49440U 21104AJ  22043.54183626 -.00332530  00000-0 -65492-2 0  9991,2 49440  53.2153  44.3891 0002043  55.4226 304.6976 15.47878151 14506,6801.071,93.031,424.326,421.547,0.0
49440.0,STARLINK-3105,PAYLOAD,2022-02-12 22:00:00,15.46600524,0.0001522,53.2173,42.5966,46.3252,242.3069,-0.014026,-0.00653398,0.0,0 STARLINK-3105,1 49440U 21104AJ  22043.91667824 -.00653398  00000-0 -14026-1 0  9993,2 49440  53.2173  42.5966 0001522  46.3252 242.3069 15.46600524 15632,6804.816,93.107,427.717,425.646,0.0
49440.0,STARLINK-3105,PAYLOAD,2022-02-13 14:00:01,15.45669045,0.0001450999999999,53.2173,39.4296,42.5644,358.87300000000016,-0.014534,-0.00655386,0.0,0 STARLINK-3105,1 49440U 21104AJ  22044.58334491 -.00655386  00000-0 -14534-1 0  9991,2 49440  53.2173  39.4296 0001451  42.5644 358.8730 15.45669045  3689,6807.55,93.164,430.403,428.427,0.0
49440.0,STARLINK-3105,PAYLOAD,2022-02-13 22:00:00,15.4520184,0.0001659,53.2174,37.8455,37.6421,59.3592,-0.014758,-0.00654928,0.0,0 STARLINK-3105,1 49440U 21104AJ  22044.91667824 -.00654928  00000-0 -14758-1 0  9996,2 49440  53.2174  37.8455 0001659  37.6421  59.3592 15.45201840 15796,6808.922,93.192,431.917,429.657,0.0
49440.0,STARLINK-3105,PAYLOAD,2022-02-14 14:00:01,15.44199994,0.0001732,53.2166,34.686,39.6191,166.8581,-0.01291,-0.0056043,0.0,0 STARLINK-3105,1 49440U 21104AJ  22045.58334491 -.00560430  00000-0 -12910-1 0  9993,2 49440  53.2166  34.6860 0001732  39.6191 166.8581 15.44199994  3659,6811.8669999999975,93.252,434.912,432.552,0.0
49440.0,STARLINK-3105,PAYLOAD,2022-02-14 20:00:01,15.43918577,0.0001746,53.2172,33.4991,38.4775,118.43,-0.015404,-0.00654267,0.0,0 STARLINK-3105,1 49440U 21104AJ  22045.83334491 -.00654267  00000-0 -15404-1 0  9994,2 49440  53.2172  33.4991 0001746  38.4775 118.4300 15.43918577  3677,6812.694,93.269,435.749,433.37,0.0
49440.0,STARLINK-3105,PAYLOAD,2022-02-15 06:00:00,15.43247814,0.0001603,53.2171,31.5292,44.8225,268.8701,-0.012884,-0.00542707,0.0,0 STARLINK-3105,1 49440U 21104AJ  22046.25001157 -.00542707  00000-0 -12884-1 0  9995,2 49440  53.2171  31.5292 0001603  44.8225 268.8701 15.43247814 15994,6814.668000000002,93.31,437.626,435.441,0.0
49440.0,STARLINK-3105,PAYLOAD,2022-02-15 14:00:01,15.42763243,0.0001564,53.2167,29.9515,31.9932,334.4667,-0.012382,-0.00514932,0.0,0 STARLINK-3105,1 49440U 21104AJ  22046.58334491 -.00514932  00000-0 -12382-1 0  9993,2 49440  53.2167  29.9515 0001564  31.9932 334.4667 15.42763243  3655,6816.095,93.339,439.026,436.894,0.0
49440.0,STARLINK-3105,PAYLOAD,2022-02-15 22:00:01,15.42401286,0.0001661,53.2174,28.3731,36.1943,22.4736,-0.0161639999999999,-0.00660084,0.0,0 STARLINK-3105,1 49440U 21104AJ  22046.91668981 -.00660084  00000-0 -16164-1 0  9996,2 49440  53.2174  28.3731 0001661  36.1943  22.4736 15.42401286  3672,6817.1619999999975,93.361,440.159,437.894,0.0
49440.0,STARLINK-3105,PAYLOAD,2022-02-16 14:00:01,15.41469502,0.0001595999999999,53.2172,25.2257,46.6949,114.6232,-0.016742,-0.00662429,0.0,0 STARLINK-3105,1 49440U 21104AJ  22047.58334491 -.00662429  00000-0 -16742-1 0  9993,2 49440  53.2172  25.2257 0001596  46.6949 114.6232 15.41469502  3677,6819.909000000002,93.417,442.862,440.685,0.0
49440.0,STARLINK-3105,PAYLOAD,2022-02-16 22:00:00,15.40898788,0.0001865,53.2166,23.6528,44.183,167.7054,-0.01312,-0.00512702,0.0,0 STARLINK-3105,1 49440U 21104AJ  22047.91667824 -.00512702  00000-0 -13120-1 0  9994,2 49440  53.2166  23.6528 0001865  44.1830 167.7054 15.40898788 16254,6821.592,93.452,444.73,442.185,0.0
49440.0,STARLINK-3105,PAYLOAD,2022-02-17 06:00:00,15.4043178,0.0001784,53.217,22.0834,52.4966,209.3478,-0.013359,-0.00513896,0.0,0 STARLINK-3105,1 49440U 21104AJ  22048.25001157 -.00513896  00000-0 -13359-1 0  9992,2 49440  53.2170  22.0834 0001784  52.4966 209.3478 15.40431780 16308,6822.971,93.48,446.05300000000005,443.619,0.0
49440.0,STARLINK-3105,PAYLOAD,2022-02-17 14:00:01,15.39937342,0.0001606,53.217,20.5123,34.0659,277.1946,-0.012749,-0.00484306,0.0,0 STARLINK-3105,1 49440U 21104AJ  22048.58334491 -.00484306  00000-0 -12749-1 0  9993,2 49440  53.2170  20.5123 0001606  34.0659 277.1946 15.39937342 16351,6824.431,93.51,447.392,445.2,0.0
49440.0,STARLINK-3105,PAYLOAD,2022-02-17 22:00:00,15.39503967,0.0001524,53.2169,18.9419,42.44600000000001,317.626,-0.013916,-0.00518753,0.0,0 STARLINK-3105,1 49440U 21104AJ  22048.91667824 -.00518753  00000-0 -13916-1 0  9990,2 49440  53.2169  18.9419 0001524  42.4460 317.6260 15.39503967 16407,6825.712,93.537,448.617,446.537,0.0
49440.0,STARLINK-3105,PAYLOAD,2022-02-18 06:00:00,15.39008306,0.0001742,53.2173,17.3758,44.038,4.3319,-0.0134479999999999,-0.00494755,0.0,0 STARLINK-3105,1 49440U 21104AJ  22049.25001157 -.00494755  00000-0 -13448-1 0  9994,2 49440  53.2173  17.3758 0001742  44.0380   4.3319 15.39008306 16459,6827.178000000001,93.567,450.232,447.853,0.0
49440.0,STARLINK-3105,PAYLOAD,2022-02-18 14:00:01,15.38669871,0.0001618,53.2174,15.8066,40.0747,55.9351,-0.018351,-0.00661727,0.0,0 STARLINK-3105,1 49440U 21104AJ  22049.58334491 -.00661727  00000-0 -18351-1 0  9993,2 49440  53.2174  15.8066 0001618  40.0747  55.9351 15.38669871 16514,6828.179,93.587,451.148,448.939,0.0
49440.0,STARLINK-3105,PAYLOAD,2022-02-18 22:00:00,15.38202802,0.0001913,53.2176,14.2398,35.4799,107.6833,-0.018587,-0.00660195,0.0,0 STARLINK-3105,1 49440U 21104AJ  22049.91667824 -.00660195  00000-0 -18587-1 0  9998,2 49440  53.2176  14.2398 0001913  35.4799 107.6833 15.38202802  3670,6829.561,93.616,452.732,450.119,0.0
49440.0,STARLINK-3105,PAYLOAD,2022-02-19 14:00:01,15.37155041,0.0001899,53.2174,11.113,31.064,204.7893,-0.014764,-0.00510184,0.0,0 STARLINK-3105,1 49440U 21104AJ  22050.58334491 -.00510184  00000-0 -14764-1 0  9999,2 49440  53.2174  11.1130 0001899  31.0640 204.7893 15.37155041  3641,6832.6640000000025,93.68,455.826,453.231,0.0
49440.0,STARLINK-3105,PAYLOAD,2022-02-19 22:00:00,15.36719245,0.0001623,53.2172,9.5494,31.5935,249.7095,-0.015967,-0.00541709,0.0,0 STARLINK-3105,1 49440U 21104AJ  22050.91667824 -.00541709  00000-0 -15967-1 0  9998,2 49440  53.2172   9.5494 0001623  31.5935 249.7095 15.36719245 16716,6833.956,93.706,456.93,454.711,0.0
49440.0,STARLINK-3105,PAYLOAD,2022-02-20 06:00:00,15.36211721,0.0001714,53.2175,7.9903,37.7704,288.4676,-0.014708,-0.00493977,0.0,0 STARLINK-3105,1 49440U 21104AJ  22051.25001157 -.00493977  00000-0 -14708-1 0  9992,2 49440  53.2175   7.9903 0001714  37.7704 288.4676 15.36211721 16765,6835.4609999999975,93.737,458.497,456.154,0.0
